[
    {
        "Altitude(m)": 612513.9579686049,
        "Argument of Periapsis(deg)": 0.0,
        "Eccentricity": 0.0,
        "Inclination(deg)": 60.0,
        "Latitude(deg)": -28.136048545421378,
        "Longitude(deg)": -107.08690532634162,
        "Mean Anomaly(deg)": -147.27270000000001,
        "RAAN(deg)": 155.0,
        "Satellite Name": "Test1 695",
        "Satellite Number": 695,
        "Semi-Major Axis(m)": 6980739.136638005,
        "Time(s)": 0
    },
    {
        "Altitude(m)": 612708.3263277679,
        "Argument of Periapsis(deg)": 0.00010418945913296404,
        "Eccentricity": 0.0,
        "Inclination(deg)": 60.0,
        "Latitude(deg)": -28.6477879329288,
        "Longitude(deg)": -106.72967509793848,
        "Mean Anomaly(deg)": -146.65259385453817,
        "RAAN(deg)": 154.99957995086027,
        "Satellite Name": "Test1 695",
        "Satellite Number": 695,
        "Semi-Major Axis(m)": 6980739.136638005,
        "Time(s)": 10
    }
]